[{"OBJECT_NAME":"STARLINK-35792","OBJECT_ID":"2025-298T","EPOCH":"2026-03-09T22:52:54.146208","MEAN_MOTION":14.99149972,"ECCENTRICITY":0.00026013,"INCLINATION":70.003,"RA_OF_ASC_NODE":13.9233,"ARG_OF_PERICENTER":243.077,"MEAN_ANOMALY":117.0124,"EPHEMERIS_TYPE":0,"CLASSIFICATION_TYPE":"U","NORAD_CAT_ID":67092,"ELEMENT_SET_NO":999,"REV_AT_EPOCH":1325,"BSTAR":0.00049307107,"MEAN_MOTION_DOT":5.921e-5,"MEAN_MOTION_DDOT":0},{"OBJECT_NAME":"OV1-10 R\/B","OBJECT_ID":"1966-111C","EPOCH":"2026-03-09T17:10:30.494208","MEAN_MOTION":14.85448079,"ECCENTRICITY":0.00582808,"INCLINATION":93.4003,"RA_OF_ASC_NODE":162.682,"ARG_OF_PERICENTER":65.7943,"MEAN_ANOMALY":294.9357,"EPHEMERIS_TYPE":0,"CLASSIFICATION_TYPE":"U","NORAD_CAT_ID":2621,"ELEMENT_SET_NO":999,"REV_AT_EPOCH":15959,"BSTAR":0.00014045213,"MEAN_MOTION_DOT":1.241e-5,"MEAN_MOTION_DDOT":0}]
